XRISM                   
1 57800U 23137A   24035.56843259  .00005738  00000+0  45027-3 0  9995
2 57800  31.0029 141.9877 0009829 325.6024  34.3974 14.99454750 22523
